CCSDS_OMM_VERS = 2.0
CREATION_DATE  = 
ORIGINATOR     = 

OBJECT_NAME    = STARLINK-36246
OBJECT_ID      = 2026-037H
CENTER_NAME    = EARTH
REF_FRAME      = TEME
TIME_SYSTEM    = UTC
MEAN_ELEMENT_THEORY = SGP/SGP4

EPOCH          = 2026-03-23T04:00:01.999584
MEAN_MOTION    = 15.50640138
ECCENTRICITY   = .00010707
INCLINATION    = 42.9991
RA_OF_ASC_NODE = 117.2197
ARG_OF_PERICENTER = 287.6908
MEAN_ANOMALY   = 14.9861

EPHEMERIS_TYPE = 0
CLASSIFICATION_TYPE = U
NORAD_CAT_ID   = 67939
ELEMENT_SET_NO = 999
REV_AT_EPOCH   = 527
BSTAR          = -.31910463E-2
MEAN_MOTION_DOT = -.183616E-2
MEAN_MOTION_DDOT = 0

CCSDS_OMM_VERS = 2.0
CREATION_DATE  = 
ORIGINATOR     = 

OBJECT_NAME    = STARLINK-36907
OBJECT_ID      = 2026-037J
CENTER_NAME    = EARTH
REF_FRAME      = TEME
TIME_SYSTEM    = UTC
MEAN_ELEMENT_THEORY = SGP/SGP4

EPOCH          = 2026-03-23T04:00:01.999584
MEAN_MOTION    = 15.58165409
ECCENTRICITY   = .00009576
INCLINATION    = 42.9990
RA_OF_ASC_NODE = 116.4868
ARG_OF_PERICENTER = 274.1085
MEAN_ANOMALY   = 324.5224

EPHEMERIS_TYPE = 0
CLASSIFICATION_TYPE = U
NORAD_CAT_ID   = 67940
ELEMENT_SET_NO = 999
REV_AT_EPOCH   = 536
BSTAR          = -.27576872E-1
MEAN_MOTION_DOT = -.1888412E-1
MEAN_MOTION_DDOT = 0

CCSDS_OMM_VERS = 2.0
CREATION_DATE  = 
ORIGINATOR     = 

OBJECT_NAME    = STARLINK-36927
OBJECT_ID      = 2026-037K
CENTER_NAME    = EARTH
REF_FRAME      = TEME
TIME_SYSTEM    = UTC
MEAN_ELEMENT_THEORY = SGP/SGP4

EPOCH          = 2026-03-23T04:00:01.999584
MEAN_MOTION    = 15.55366990
ECCENTRICITY   = .00007335
INCLINATION    = 42.9996
RA_OF_ASC_NODE = 116.6164
ARG_OF_PERICENTER = 281.1092
MEAN_ANOMALY   = 265.0836

EPHEMERIS_TYPE = 0
CLASSIFICATION_TYPE = U
NORAD_CAT_ID   = 67941
ELEMENT_SET_NO = 999
REV_AT_EPOCH   = 536
BSTAR          = -.30810811E-1
MEAN_MOTION_DOT = -.1897175E-1
MEAN_MOTION_DDOT = 0

CCSDS_OMM_VERS = 2.0
CREATION_DATE  = 
ORIGINATOR     = 

OBJECT_NAME    = STARLINK-36914
OBJECT_ID      = 2026-037L
CENTER_NAME    = EARTH
REF_FRAME      = TEME
TIME_SYSTEM    = UTC
MEAN_ELEMENT_THEORY = SGP/SGP4

EPOCH          = 2026-03-23T04:00:01.999584
MEAN_MOTION    = 15.62359637
ECCENTRICITY   = .00012851
INCLINATION    = 42.9993
RA_OF_ASC_NODE = 116.3131
ARG_OF_PERICENTER = 268.2958
MEAN_ANOMALY   = 40.0666

EPHEMERIS_TYPE = 0
CLASSIFICATION_TYPE = U
NORAD_CAT_ID   = 67942
ELEMENT_SET_NO = 999
REV_AT_EPOCH   = 536
BSTAR          = -.23883826E-1
MEAN_MOTION_DOT = -.1920447E-1
MEAN_MOTION_DDOT = 0

CCSDS_OMM_VERS = 2.0
CREATION_DATE  = 
ORIGINATOR     = 

OBJECT_NAME    = STARLINK-36851
OBJECT_ID      = 2026-037M
CENTER_NAME    = EARTH
REF_FRAME      = TEME
TIME_SYSTEM    = UTC
MEAN_ELEMENT_THEORY = SGP/SGP4

EPOCH          = 2026-03-23T04:00:01.999584
MEAN_MOTION    = 15.56356017
ECCENTRICITY   = .00008417
INCLINATION    = 42.9994
RA_OF_ASC_NODE = 116.5928
ARG_OF_PERICENTER = 275.7483
MEAN_ANOMALY   = 279.8768

EPHEMERIS_TYPE = 0
CLASSIFICATION_TYPE = U
NORAD_CAT_ID   = 67943
ELEMENT_SET_NO = 999
REV_AT_EPOCH   = 536
BSTAR          = -.29715059E-1
MEAN_MOTION_DOT = -.1898632E-1
MEAN_MOTION_DDOT = 0

CCSDS_OMM_VERS = 2.0
CREATION_DATE  = 
ORIGINATOR     = 

OBJECT_NAME    = STARLINK-36892
OBJECT_ID      = 2026-037N
CENTER_NAME    = EARTH
REF_FRAME      = TEME
TIME_SYSTEM    = UTC
MEAN_ELEMENT_THEORY = SGP/SGP4

EPOCH          = 2026-03-23T04:00:01.999584
MEAN_MOTION    = 15.57155672
ECCENTRICITY   = .00010821
INCLINATION    = 42.9992
RA_OF_ASC_NODE = 116.5293
ARG_OF_PERICENTER = 265.6877
MEAN_ANOMALY   = 315.9783

EPHEMERIS_TYPE = 0
CLASSIFICATION_TYPE = U
NORAD_CAT_ID   = 67944
ELEMENT_SET_NO = 999
REV_AT_EPOCH   = 536
BSTAR          = -.28686251E-1
MEAN_MOTION_DOT = -.1890298E-1
MEAN_MOTION_DDOT = 0

CCSDS_OMM_VERS = 2.0
CREATION_DATE  = 
ORIGINATOR     = 

OBJECT_NAME    = STARLINK-36908
OBJECT_ID      = 2026-037P
CENTER_NAME    = EARTH
REF_FRAME      = TEME
TIME_SYSTEM    = UTC
MEAN_ELEMENT_THEORY = SGP/SGP4

EPOCH          = 2026-03-23T04:00:01.999584
MEAN_MOTION    = 15.57990870
ECCENTRICITY   = .00007809
INCLINATION    = 42.9993
RA_OF_ASC_NODE = 116.4636
ARG_OF_PERICENTER = 276.2454
MEAN_ANOMALY   = 331.6478

EPHEMERIS_TYPE = 0
CLASSIFICATION_TYPE = U
NORAD_CAT_ID   = 67945
ELEMENT_SET_NO = 999
REV_AT_EPOCH   = 536
BSTAR          = -.27721657E-1
MEAN_MOTION_DOT = -.1885946E-1
MEAN_MOTION_DDOT = 0

CCSDS_OMM_VERS = 2.0
CREATION_DATE  = 
ORIGINATOR     = 

OBJECT_NAME    = STARLINK-36909
OBJECT_ID      = 2026-037Q
CENTER_NAME    = EARTH
REF_FRAME      = TEME
TIME_SYSTEM    = UTC
MEAN_ELEMENT_THEORY = SGP/SGP4

EPOCH          = 2026-03-23T04:00:01.999584
MEAN_MOTION    = 15.64473960
ECCENTRICITY   = .00015199
INCLINATION    = 42.9997
RA_OF_ASC_NODE = 116.1638
ARG_OF_PERICENTER = 274.2221
MEAN_ANOMALY   = 93.7824

EPHEMERIS_TYPE = 0
CLASSIFICATION_TYPE = U
NORAD_CAT_ID   = 67946
ELEMENT_SET_NO = 999
REV_AT_EPOCH   = 536
BSTAR          = -.21746261E-1
MEAN_MOTION_DOT = -.1904418E-1
MEAN_MOTION_DDOT = 0

CCSDS_OMM_VERS = 2.0
CREATION_DATE  = 
ORIGINATOR     = 

OBJECT_NAME    = STARLINK-36920
OBJECT_ID      = 2026-037R
CENTER_NAME    = EARTH
REF_FRAME      = TEME
TIME_SYSTEM    = UTC
MEAN_ELEMENT_THEORY = SGP/SGP4

EPOCH          = 2026-03-23T04:00:01.999584
MEAN_MOTION    = 15.53203928
ECCENTRICITY   = .00014593
INCLINATION    = 42.9997
RA_OF_ASC_NODE = 116.7061
ARG_OF_PERICENTER = 278.3677
MEAN_ANOMALY   = 231.5970

EPHEMERIS_TYPE = 0
CLASSIFICATION_TYPE = U
NORAD_CAT_ID   = 67947
ELEMENT_SET_NO = 999
REV_AT_EPOCH   = 536
BSTAR          = -.27309242E-1
MEAN_MOTION_DOT = -.1586594E-1
MEAN_MOTION_DDOT = 0

CCSDS_OMM_VERS = 2.0
CREATION_DATE  = 
ORIGINATOR     = 

OBJECT_NAME    = STARLINK-36873
OBJECT_ID      = 2026-037S
CENTER_NAME    = EARTH
REF_FRAME      = TEME
TIME_SYSTEM    = UTC
MEAN_ELEMENT_THEORY = SGP/SGP4

EPOCH          = 2026-03-23T04:00:01.999584
MEAN_MOTION    = 15.52127742
ECCENTRICITY   = .00014782
INCLINATION    = 43.0001
RA_OF_ASC_NODE = 116.7722
ARG_OF_PERICENTER = 290.0920
MEAN_ANOMALY   = 192.6537

EPHEMERIS_TYPE = 0
CLASSIFICATION_TYPE = U
NORAD_CAT_ID   = 67948
ELEMENT_SET_NO = 999
REV_AT_EPOCH   = 536
BSTAR          = -.3634988E-1
MEAN_MOTION_DOT = -.2013163E-1
MEAN_MOTION_DDOT = 0

CCSDS_OMM_VERS = 2.0
CREATION_DATE  = 
ORIGINATOR     = 

OBJECT_NAME    = STARLINK-36863
OBJECT_ID      = 2026-037T
CENTER_NAME    = EARTH
REF_FRAME      = TEME
TIME_SYSTEM    = UTC
MEAN_ELEMENT_THEORY = SGP/SGP4

EPOCH          = 2026-03-23T04:00:01.999584
MEAN_MOTION    = 15.56629593
ECCENTRICITY   = .0000916
INCLINATION    = 42.9992
RA_OF_ASC_NODE = 116.4926
ARG_OF_PERICENTER = 270.3833
MEAN_ANOMALY   = 325.4450

EPHEMERIS_TYPE = 0
CLASSIFICATION_TYPE = U
NORAD_CAT_ID   = 67949
ELEMENT_SET_NO = 999
REV_AT_EPOCH   = 536
BSTAR          = -.29372358E-1
MEAN_MOTION_DOT = -.1896498E-1
MEAN_MOTION_DDOT = 0

CCSDS_OMM_VERS = 2.0
CREATION_DATE  = 
ORIGINATOR     = 

OBJECT_NAME    = STARLINK-36887
OBJECT_ID      = 2026-037U
CENTER_NAME    = EARTH
REF_FRAME      = TEME
TIME_SYSTEM    = UTC
MEAN_ELEMENT_THEORY = SGP/SGP4

EPOCH          = 2026-03-23T04:00:01.999584
MEAN_MOTION    = 15.50611562
ECCENTRICITY   = .00012856
INCLINATION    = 42.9989
RA_OF_ASC_NODE = 117.3846
ARG_OF_PERICENTER = 267.7128
MEAN_ANOMALY   = 327.0923

EPHEMERIS_TYPE = 0
CLASSIFICATION_TYPE = U
NORAD_CAT_ID   = 67950
ELEMENT_SET_NO = 999
REV_AT_EPOCH   = 536
BSTAR          = -.1844967E-2
MEAN_MOTION_DOT = -.10723E-2
MEAN_MOTION_DDOT = 0

